[{"OBJECT_NAME":"UNKNOWN","OBJECT_ID":"","EPOCH":"2026-03-14T05:57:51.105024","MEAN_MOTION":13.66333142,"ECCENTRICITY":0.0104073,"INCLINATION":90.3459,"RA_OF_ASC_NODE":72.6937,"ARG_OF_PERICENTER":347.135,"MEAN_ANOMALY":12.7157,"EPHEMERIS_TYPE":0,"CLASSIFICATION_TYPE":"U","NORAD_CAT_ID":87159,"ELEMENT_SET_NO":999,"REV_AT_EPOCH":56918,"BSTAR":0.001791,"MEAN_MOTION_DOT":1.544e-5,"MEAN_MOTION_DDOT":0},{"OBJECT_NAME":"UNKNOWN","OBJECT_ID":"","EPOCH":"2026-03-13T20:04:40.158624","MEAN_MOTION":13.64557294,"ECCENTRICITY":0.0646096,"INCLINATION":65.6022,"RA_OF_ASC_NODE":11.5132,"ARG_OF_PERICENTER":23.8742,"MEAN_ANOMALY":339.09,"EPHEMERIS_TYPE":0,"CLASSIFICATION_TYPE":"U","NORAD_CAT_ID":87163,"ELEMENT_SET_NO":999,"REV_AT_EPOCH":58994,"BSTAR":0.0019781,"MEAN_MOTION_DOT":6.78e-5,"MEAN_MOTION_DDOT":0},{"OBJECT_NAME":"UNKNOWN","OBJECT_ID":"","EPOCH":"2026-03-11T14:32:52.474560","MEAN_MOTION":14.5932093,"ECCENTRICITY":0.0106526,"INCLINATION":65.2026,"RA_OF_ASC_NODE":69.4162,"ARG_OF_PERICENTER":13.1998,"MEAN_ANOMALY":347.185,"EPHEMERIS_TYPE":0,"CLASSIFICATION_TYPE":"U","NORAD_CAT_ID":87164,"ELEMENT_SET_NO":999,"REV_AT_EPOCH":64873,"BSTAR":0.001155,"MEAN_MOTION_DOT":5.806e-5,"MEAN_MOTION_DDOT":0},{"OBJECT_NAME":"UNKNOWN","OBJECT_ID":"","EPOCH":"2026-03-12T13:53:48.203232","MEAN_MOTION":14.29820307,"ECCENTRICITY":0.0046668,"INCLINATION":98.5322,"RA_OF_ASC_NODE":295.6024,"ARG_OF_PERICENTER":60.1377,"MEAN_ANOMALY":300.4431,"EPHEMERIS_TYPE":0,"CLASSIFICATION_TYPE":"U","NORAD_CAT_ID":87204,"ELEMENT_SET_NO":999,"REV_AT_EPOCH":63827,"BSTAR":0.00089491,"MEAN_MOTION_DOT":2.285e-5,"MEAN_MOTION_DDOT":0},{"OBJECT_NAME":"UNKNOWN","OBJECT_ID":"","EPOCH":"2026-03-11T19:43:47.077824","MEAN_MOTION":14.47271874,"ECCENTRICITY":0.0051488,"INCLINATION":99.0867,"RA_OF_ASC_NODE":82.0805,"ARG_OF_PERICENTER":253.5397,"MEAN_ANOMALY":233.2159,"EPHEMERIS_TYPE":0,"CLASSIFICATION_TYPE":"U","NORAD_CAT_ID":87211,"ELEMENT_SET_NO":999,"REV_AT_EPOCH":72065,"BSTAR":0.00099726,"MEAN_MOTION_DOT":3.657e-5,"MEAN_MOTION_DDOT":0},{"OBJECT_NAME":"UNKNOWN","OBJECT_ID":"","EPOCH":"2026-03-14T11:27:44.466336","MEAN_MOTION":13.84300934,"ECCENTRICITY":0.0067685,"INCLINATION":100.3319,"RA_OF_ASC_NODE":86.1701,"ARG_OF_PERICENTER":19.325,"MEAN_ANOMALY":341.0446,"EPHEMERIS_TYPE":0,"CLASSIFICATION_TYPE":"U","NORAD_CAT_ID":87214,"ELEMENT_SET_NO":999,"REV_AT_EPOCH":61293,"BSTAR":0.0016528,"MEAN_MOTION_DOT":1.828e-5,"MEAN_MOTION_DDOT":0},{"OBJECT_NAME":"UNKNOWN","OBJECT_ID":"","EPOCH":"2026-03-14T15:26:09.761856","MEAN_MOTION":13.91846378,"ECCENTRICITY":0.0103352,"INCLINATION":99.2402,"RA_OF_ASC_NODE":133.8725,"ARG_OF_PERICENTER":36.4208,"MEAN_ANOMALY":115.339,"EPHEMERIS_TYPE":0,"CLASSIFICATION_TYPE":"U","NORAD_CAT_ID":87237,"ELEMENT_SET_NO":999,"REV_AT_EPOCH":62454,"BSTAR":0.00031462,"MEAN_MOTION_DOT":3.74e-6,"MEAN_MOTION_DDOT":0},{"OBJECT_NAME":"UNKNOWN","OBJECT_ID":"","EPOCH":"2026-03-14T12:58:19.287264","MEAN_MOTION":14.54097732,"ECCENTRICITY":0.0021223,"INCLINATION":82.8752,"RA_OF_ASC_NODE":4.7703,"ARG_OF_PERICENTER":100.2327,"MEAN_ANOMALY":260.1268,"EPHEMERIS_TYPE":0,"CLASSIFICATION_TYPE":"U","NORAD_CAT_ID":87239,"ELEMENT_SET_NO":999,"REV_AT_EPOCH":64120,"BSTAR":0.0035768,"MEAN_MOTION_DOT":0.00015189,"MEAN_MOTION_DDOT":0},{"OBJECT_NAME":"UNKNOWN","OBJECT_ID":"","EPOCH":"2026-03-14T16:10:58.777824","MEAN_MOTION":14.16783383,"ECCENTRICITY":0.0425113,"INCLINATION":65.6395,"RA_OF_ASC_NODE":161.7549,"ARG_OF_PERICENTER":75.029,"MEAN_ANOMALY":69.6107,"EPHEMERIS_TYPE":0,"CLASSIFICATION_TYPE":"U","NORAD_CAT_ID":87245,"ELEMENT_SET_NO":999,"REV_AT_EPOCH":62722,"BSTAR":0.00095418,"MEAN_MOTION_DOT":4.574e-5,"MEAN_MOTION_DDOT":0},{"OBJECT_NAME":"UNKNOWN","OBJECT_ID":"","EPOCH":"2026-03-14T09:16:02.084736","MEAN_MOTION":14.23262816,"ECCENTRICITY":0.0419918,"INCLINATION":65.7565,"RA_OF_ASC_NODE":349.6957,"ARG_OF_PERICENTER":25.1699,"MEAN_ANOMALY":336.9217,"EPHEMERIS_TYPE":0,"CLASSIFICATION_TYPE":"U","NORAD_CAT_ID":87271,"ELEMENT_SET_NO":999,"REV_AT_EPOCH":62540,"BSTAR":0.0024864,"MEAN_MOTION_DOT":0.00014089,"MEAN_MOTION_DDOT":0},{"OBJECT_NAME":"UNKNOWN","OBJECT_ID":"","EPOCH":"2026-03-14T13:16:52.552128","MEAN_MOTION":13.48650087,"ECCENTRICITY":0.0127103,"INCLINATION":64.6178,"RA_OF_ASC_NODE":8.2762,"ARG_OF_PERICENTER":243.2707,"MEAN_ANOMALY":115.5278,"EPHEMERIS_TYPE":0,"CLASSIFICATION_TYPE":"U","NORAD_CAT_ID":87280,"ELEMENT_SET_NO":999,"REV_AT_EPOCH":54623,"BSTAR":0.00067886,"MEAN_MOTION_DOT":3.61e-6,"MEAN_MOTION_DDOT":0},{"OBJECT_NAME":"UNKNOWN","OBJECT_ID":"","EPOCH":"2026-03-14T12:18:37.145952","MEAN_MOTION":14.19719391,"ECCENTRICITY":0.0427662,"INCLINATION":65.8957,"RA_OF_ASC_NODE":260.9989,"ARG_OF_PERICENTER":310.2434,"MEAN_ANOMALY":46.1965,"EPHEMERIS_TYPE":0,"CLASSIFICATION_TYPE":"U","NORAD_CAT_ID":87293,"ELEMENT_SET_NO":999,"REV_AT_EPOCH":62701,"BSTAR":0.00096764,"MEAN_MOTION_DOT":5.077e-5,"MEAN_MOTION_DDOT":0},{"OBJECT_NAME":"UNKNOWN","OBJECT_ID":"","EPOCH":"2026-03-10T05:16:49.194048","MEAN_MOTION":13.99800826,"ECCENTRICITY":0.0026397,"INCLINATION":100.1018,"RA_OF_ASC_NODE":65.5426,"ARG_OF_PERICENTER":60.5219,"MEAN_ANOMALY":299.857,"EPHEMERIS_TYPE":0,"CLASSIFICATION_TYPE":"U","NORAD_CAT_ID":87300,"ELEMENT_SET_NO":999,"REV_AT_EPOCH":62535,"BSTAR":0.001226,"MEAN_MOTION_DOT":1.75e-5,"MEAN_MOTION_DDOT":0},{"OBJECT_NAME":"UNKNOWN","OBJECT_ID":"","EPOCH":"2026-03-14T13:48:36.222336","MEAN_MOTION":14.75854852,"ECCENTRICITY":0.0016098,"INCLINATION":74.0207,"RA_OF_ASC_NODE":141.1213,"ARG_OF_PERICENTER":84.9725,"MEAN_ANOMALY":275.3286,"EPHEMERIS_TYPE":0,"CLASSIFICATION_TYPE":"U","NORAD_CAT_ID":87304,"ELEMENT_SET_NO":999,"REV_AT_EPOCH":66002,"BSTAR":0.00026033,"MEAN_MOTION_DOT":1.757e-5,"MEAN_MOTION_DDOT":0},{"OBJECT_NAME":"UNKNOWN","OBJECT_ID":"","EPOCH":"2026-03-14T02:47:34.279008","MEAN_MOTION":13.70474977,"ECCENTRICITY":0.0421555,"INCLINATION":66.5914,"RA_OF_ASC_NODE":226.2319,"ARG_OF_PERICENTER":356.2127,"MEAN_ANOMALY":3.5775,"EPHEMERIS_TYPE":0,"CLASSIFICATION_TYPE":"U","NORAD_CAT_ID":87320,"ELEMENT_SET_NO":999,"REV_AT_EPOCH":60626,"BSTAR":0.00060364,"MEAN_MOTION_DOT":9.29e-6,"MEAN_MOTION_DDOT":0},{"OBJECT_NAME":"UNKNOWN","OBJECT_ID":"","EPOCH":"2026-03-14T13:05:39.345792","MEAN_MOTION":14.10609636,"ECCENTRICITY":0.0065868,"INCLINATION":90.006,"RA_OF_ASC_NODE":271.7088,"ARG_OF_PERICENTER":309.7855,"MEAN_ANOMALY":49.7541,"EPHEMERIS_TYPE":0,"CLASSIFICATION_TYPE":"U","NORAD_CAT_ID":87334,"ELEMENT_SET_NO":999,"REV_AT_EPOCH":39957,"BSTAR":0.01223,"MEAN_MOTION_DOT":0.00022316,"MEAN_MOTION_DDOT":0},{"OBJECT_NAME":"UNKNOWN","OBJECT_ID":"","EPOCH":"2026-03-12T23:31:56.699040","MEAN_MOTION":14.10754635,"ECCENTRICITY":0.0084187,"INCLINATION":89.997,"RA_OF_ASC_NODE":267.8816,"ARG_OF_PERICENTER":294.7984,"MEAN_ANOMALY":64.446,"EPHEMERIS_TYPE":0,"CLASSIFICATION_TYPE":"U","NORAD_CAT_ID":87335,"ELEMENT_SET_NO":999,"REV_AT_EPOCH":39968,"BSTAR":0.010347,"MEAN_MOTION_DOT":0.0001917,"MEAN_MOTION_DDOT":0}]
