UNKNOWN                 
1 87159U          26073.24850816  .00001544  00000+0  17910-2 0  9995
2 87159  90.3459  72.6937 0104073 347.1350  12.7157 13.66333142569188
UNKNOWN                 
1 87163U          26072.83657591  .00006780  00000+0  19781-2 0  9994
2 87163  65.6022  11.5132 0646096  23.8742 339.0900 13.64557294589943
UNKNOWN                 
1 87164U          26070.60616290  .00005806  00000+0  11550-2 0  9993
2 87164  65.2026  69.4162 0106526  13.1998 347.1850 14.59320930648730
UNKNOWN                 
1 87204U          26071.57903013  .00002285  00000+0  89491-3 0  9995
2 87204  98.5322 295.6024 0046668  60.1377 300.4431 14.29820307638271
UNKNOWN                 
1 87211U          26070.82207266  .00003657  00000+0  99726-3 0  9993
2 87211  99.0867  82.0805 0051488 253.5397 233.2159 14.47271874720653
UNKNOWN                 
1 87214U          26073.47759799  .00001828  00000+0  16528-2 0  9999
2 87214 100.3319  86.1701 0067685  19.3250 341.0446 13.84300934612934
UNKNOWN                 
1 87237U          26073.64316854  .00000374  00000+0  31462-3 0  9994
2 87237  99.2402 133.8725 0103352  36.4208 115.3390 13.91846378624544
UNKNOWN                 
1 87239U          26073.54050101  .00015189  00000+0  35768-2 0  9997
2 87239  82.8752   4.7703 0021223 100.2327 260.1268 14.54097732641209
UNKNOWN                 
1 87245U          26073.67429141  .00004574  00000+0  95418-3 0  9997
2 87245  65.6395 161.7549 0425113  75.0290  69.6107 14.16783383627226
UNKNOWN                 
1 87271U          26073.38613524  .00014089  00000+0  24864-2 0  9992
2 87271  65.7565 349.6957 0419918  25.1699 336.9217 14.23262816625401
UNKNOWN                 
1 87280U          26073.55338602  .00000361  00000+0  67886-3 0  9992
2 87280  64.6178   8.2762 0127103 243.2707 115.5278 13.48650087546234
UNKNOWN                 
1 87293U          26073.51292993  .00005077  00000+0  96764-3 0  9990
2 87293  65.8957 260.9989 0427662 310.2434  46.1965 14.19719391627010
UNKNOWN                 
1 87300U          26069.22001382  .00001750  00000+0  12260-2 0  9994
2 87300 100.1018  65.5426 0026397  60.5219 299.8570 13.99800826625356
UNKNOWN                 
1 87304U          26073.57541924  .00001757  00000+0  26033-3 0  9993
2 87304  74.0207 141.1213 0016098  84.9725 275.3286 14.75854852660022
UNKNOWN                 
1 87320U          26073.11636897  .00000929  00000+0  60364-3 0  9990
2 87320  66.5914 226.2319 0421555 356.2127   3.5775 13.70474977606262
UNKNOWN                 
1 87334U          26073.54559428  .00022316  00000+0  12230-1 0  9997
2 87334  90.0060 271.7088 0065868 309.7855  49.7541 14.10609636399574
UNKNOWN                 
1 87335U          26071.98051735  .00019170  00000+0  10347-1 0  9993
2 87335  89.9970 267.8816 0084187 294.7984  64.4460 14.10754635399684
